{
    "links": {
        "self": "http://www.neowsapp.com/rest/v1/neo/3735610?api_key=iIulBulltgU6a56xZRHN4H3l9WmuAYTsLGpBGhQ2"
    },
    "id": "3735610",
    "neo_reference_id": "3735610",
    "name": "(2015 XA)",
    "designation": "2015 XA",
    "nasa_jpl_url": "http://ssd.jpl.nasa.gov/sbdb.cgi?sstr=3735610",
    "absolute_magnitude_h": 24.0,
    "estimated_diameter": {
        "kilometers": {
            "estimated_diameter_min": 0.0421264611,
            "estimated_diameter_max": 0.0941976306
        },
        "meters": {
            "estimated_diameter_min": 42.1264610556,
            "estimated_diameter_max": 94.1976305719
        },
        "miles": {
            "estimated_diameter_min": 0.0261761612,
            "estimated_diameter_max": 0.0585316759
        },
        "feet": {
            "estimated_diameter_min": 138.2101784897,
            "estimated_diameter_max": 309.0473542854
        }
    },
    "is_potentially_hazardous_asteroid": false,
    "close_approach_data": [
        {
            "close_approach_date": "2015-11-27",
            "close_approach_date_full": "2015-Nov-27 16:34",
            "epoch_date_close_approach": 1448642040000,
            "relative_velocity": {
                "kilometers_per_second": "11.5850266145",
                "kilometers_per_hour": "41706.095812209",
                "miles_per_hour": "25914.5460339806"
            },
            "miss_distance": {
                "astronomical": "0.0919180795",
                "lunar": "35.7561329255",
                "kilometers": "13750748.907690665",
                "miles": "8544319.165894577"
            },
            "orbiting_body": "Earth"
        }
    ],
    "orbital_data": {
        "orbit_id": "12",
        "orbit_determination_date": "2017-04-06 08:30:22",
        "first_observation_date": "2015-12-01",
        "last_observation_date": "2015-12-20",
        "data_arc_in_days": 19,
        "observations_used": 68,
        "orbit_uncertainty": "7",
        "minimum_orbit_intersection": ".0822802",
        "jupiter_tisserand_invariant": "3.255",
        "epoch_osculation": "2459000.5",
        "eccentricity": ".5564841850677523",
        "semi_major_axis": "2.388925263949244",
        "inclination": "17.02252387131678",
        "ascending_node_longitude": "247.7422634539403",
        "orbital_period": "1348.659363194429",
        "perihelion_distance": "1.059526135252684",
        "perihelion_argument": "165.4031119005511",
        "aphelion_distance": "3.718324392645804",
        "perihelion_time": "2458696.621804272699",
        "mean_anomaly": "81.11473767750597",
        "mean_motion": ".2669317470553169",
        "equinox": "J2000",
        "orbit_class": {
            "orbit_class_type": "AMO",
            "orbit_class_description": "Near-Earth asteroid orbits similar to that of 1221 Amor",
            "orbit_class_range": "1.017 AU < q (perihelion) < 1.3 AU"
        }
    },
    "is_sentry_object": false
}